NORAD_CAT_ID,OBJECT_NAME,OBJECT_TYPE,EPOCH,MEAN_MOTION,ECCENTRICITY,INCLINATION,RA_OF_ASC_NODE,ARG_OF_PERICENTER,MEAN_ANOMALY,BSTAR,MEAN_MOTION_DOT,MEAN_MOTION_DDOT,TLE_LINE0,TLE_LINE1,TLE_LINE2,SEMIMAJOR_AXIS,PERIOD,APOGEE,PERIGEE,DECAYED
53539.0,STARLINK-4123,PAYLOAD,2024-06-30 16:45:14,15.08832694,0.0001187,53.2164,323.9095,88.2693,271.8435,0.00023367,3.432e-05,0.0,0 STARLINK-4123,1 53539U 22101N   24182.69808275  .00003432  00000-0  23367-3 0  9999,2 53539  53.2164 323.9095 0001187  88.2693 271.8435 15.08832694103024,6917.903,95.438,540.589,538.947,0.0
53539.0,STARLINK-4123,PAYLOAD,2024-07-01 02:17:33,15.08848977,0.000132,53.2174,322.1241,79.953,280.1611,0.00073898,0.00011495,0.0,0 STARLINK-4123,1 53539U 22101N   24183.09552114  .00011495  00000-0  73898-3 0  9994,2 53539  53.2174 322.1241 0001320  79.9530 280.1611 15.08848977103081,6917.853,95.437,540.631,538.805,0.0
53539.0,STARLINK-4123,PAYLOAD,2024-07-01 13:25:15,15.08839113,0.0002277,53.216,320.0407,83.5722,276.5529,0.00032417,4.875e-05,0.0,0 STARLINK-4123,1 53539U 22101N   24183.55920711  .00004875  00000-0  32417-3 0  9993,2 53539  53.2160 320.0407 0002277  83.5722 276.5529 15.08839113103150,6917.883,95.438,541.323,538.173,0.0
53539.0,STARLINK-4123,PAYLOAD,2024-07-01 16:36:01,15.08842382,0.0001132,53.2153,319.4452,77.0003,283.1116,0.00078141,0.00012171,0.0,0 STARLINK-4123,1 53539U 22101N   24183.69168465  .00012171  00000-0  78141-3 0  9990,2 53539  53.2153 319.4452 0001132  77.0003 283.1116 15.08842382103173,6917.873,95.437,540.521,538.955,0.0
53539.0,STARLINK-4123,PAYLOAD,2024-07-02 13:16:02,15.0883475,8.82e-05,53.2147,315.5808,97.4047,262.7045,0.00095621,0.00014961,0.0,0 STARLINK-4123,1 53539U 22101N   24184.55280753  .00014961  00000-0  95621-3 0  9992,2 53539  53.2147 315.5808 0000882  97.4047 262.7045 15.08834750103302,6917.896,95.438,540.372,539.151,0.0
53539.0,STARLINK-4123,PAYLOAD,2024-07-02 14:51:25,15.08831733,9.62e-05,53.2155,315.284,101.5037,258.6063,0.0010476,0.0001642,0.0,0 STARLINK-4123,1 53539U 22101N   24184.61904841  .00016420  00000-0  10476-2 0  9996,2 53539  53.2155 315.2840 0000962 101.5037 258.6063 15.08831733103312,6917.906,95.438,540.436,539.105,0.0
53539.0,STARLINK-4123,PAYLOAD,2024-07-02 18:02:12,15.0884023,0.0001052,53.2152,314.6886,92.0244,268.0868,0.0015267,0.00024093,0.0,0 STARLINK-4123,1 53539U 22101N   24184.75152828  .00024093  00000-0  15267-2 0  9999,2 53539  53.2152 314.6886 0001052  92.0244 268.0868 15.08840230103339,6917.88,95.438,540.472,539.017,0.0
53539.0,STARLINK-4123,PAYLOAD,2024-07-03 13:06:49,15.08841761,0.0001136,53.215,311.1206,88.2094,271.9028,0.00099136,0.00015525,0.0,0 STARLINK-4123,1 53539U 22101N   24185.54641006  .00015525  00000-0  99136-3 0  9996,2 53539  53.2150 311.1206 0001136  88.2094 271.9028 15.08841761103452,6917.875,95.437,540.526,538.954,0.0
53539.0,STARLINK-4123,PAYLOAD,2024-07-03 14:42:12,15.08844169,0.000119,53.2148,310.8232,84.3675,275.7453,0.0010836,0.00017002,0.0,0 STARLINK-4123,1 53539U 22101N   24185.61265014  .00017002  00000-0  10836-2 0  9996,2 53539  53.2148 310.8232 0001190  84.3675 275.7453 15.08844169103466,6917.868,95.437,540.556,538.909,0.0
53539.0,STARLINK-4123,PAYLOAD,2024-07-04 12:57:36,15.08841402,0.0001193,53.2158,306.6585,110.7294,249.3826,0.0010645,0.00016695,0.0,0 STARLINK-4123,1 53539U 22101N   24186.54000848  .00016695  00000-0  10645-2 0  9996,2 53539  53.2158 306.6585 0001193 110.7294 249.3826 15.08841402103609,6917.876,95.437,540.566,538.916,0.0
53539.0,STARLINK-4123,PAYLOAD,2024-07-04 14:32:59,15.0883962,0.0001304,53.2171,306.3621,97.5025,262.6116,0.0010601,0.00016624,0.0,0 STARLINK-4123,1 53539U 22101N   24186.60624944  .00016624  00000-0  10601-2 0  9996,2 53539  53.2171 306.3621 0001304  97.5025 262.6116 15.08839620103610,6917.882,95.438,540.649,538.844,0.0
53539.0,STARLINK-4123,PAYLOAD,2024-07-05 12:48:23,15.08852898,0.0001231,53.2173,302.2003,93.0305,267.0828,0.00066681,0.00010344,0.0,0 STARLINK-4123,1 53539U 22101N   24187.53360731  .00010344  00000-0  66681-3 0  9993,2 53539  53.2173 302.2003 0001231  93.0305 267.0828 15.08852898103758,6917.841,95.437,540.558,538.854,0.0
53539.0,STARLINK-4123,PAYLOAD,2024-07-05 14:23:46,15.08852988,0.0001067,53.2167,301.9056,76.6648,283.4463,0.00065914,0.00010222,0.0,0 STARLINK-4123,1 53539U 22101N   24187.59984763  .00010222  00000-0  65914-3 0  9999,2 53539  53.2167 301.9056 0001067  76.6648 283.4463 15.08852988103767,6917.841,95.437,540.444,538.968,0.0
53539.0,STARLINK-4123,PAYLOAD,2024-07-06 12:39:10,15.08833044,0.0001374,53.2179,297.7407,94.5611,265.5538,-0.0001308,-2.369e-05,0.0,0 STARLINK-4123,1 53539U 22101N   24188.52720996 -.00002369  00000-0 -13080-3 0  9991,2 53539  53.2179 297.7407 0001374  94.5611 265.5538 15.08833044103904,6917.902,95.438,540.717,538.816,0.0
53539.0,STARLINK-4123,PAYLOAD,2024-07-06 14:14:34,15.08835173,0.0001214,53.2171,297.4398,84.4675,275.6455,-6.2804e-05,-1.287e-05,0.0,0 STARLINK-4123,1 53539U 22101N   24188.59345001 -.00001287  00000-0 -62804-4 0  9995,2 53539  53.2171 297.4398 0001214  84.4675 275.6455 15.08835173103919,6917.895,95.438,540.6,538.92,0.0
53539.0,STARLINK-4123,PAYLOAD,2024-07-06 23:46:52,15.08842699,0.0001252,53.2174,295.6586,92.2521,267.8615,0.00010336,1.358e-05,0.0,0 STARLINK-4123,1 53539U 22101N   24188.99088779  .00001358  00000-0  10336-3 0  9994,2 53539  53.2174 295.6586 0001252  92.2521 267.8615 15.08842699103978,6917.872,95.437,540.603,538.871,0.0
53539.0,STARLINK-4123,PAYLOAD,2024-07-07 10:54:35,15.08831976,0.0001399,53.2182,293.579,94.8443,265.2709,-6.4816e-05,-1.319e-05,0.0,0 STARLINK-4123,1 53539U 22101N   24189.45457352 -.00001319  00000-0 -64816-4 0  9995,2 53539  53.2182 293.5790 0001399  94.8443 265.2709 15.08831976104045,6917.905,95.438,540.738,538.802,0.0
53539.0,STARLINK-4123,PAYLOAD,2024-07-08 12:20:45,15.08842125,0.000142,53.218,288.8217,98.2822,261.8331,0.00024171,3.561e-05,0.0,0 STARLINK-4123,1 53539U 22101N   24190.51441341  .00003561  00000-0  24171-3 0  9993,2 53539  53.2180 288.8217 0001420  98.2822 261.8331 15.08842125104207,6917.874,95.437,540.721,538.757,0.0
53539.0,STARLINK-4123,PAYLOAD,2024-07-08 13:56:08,15.08840613,0.0001386,53.2179,288.5239,96.0432,264.0718,0.00019516,2.819e-05,0.0,0 STARLINK-4123,1 53539U 22101N   24190.58065387  .00002819  00000-0  19516-3 0  9994,2 53539  53.2179 288.5239 0001386  96.0432 264.0718 15.08840613104215,6917.879,95.438,540.702,538.785,0.0
53539.0,STARLINK-4123,PAYLOAD,2024-07-08 23:28:26,15.08854404,0.0001345,53.2174,286.738,84.6126,275.5019,0.00034727,5.245e-05,0.0,0 STARLINK-4123,1 53539U 22101N   24190.97808662  .00005245  00000-0  34727-3 0  9995,2 53539  53.2174 286.7380 0001345  84.6126 275.5019 15.08854404104275,6917.836,95.437,540.632,538.771,0.0
53539.0,STARLINK-4123,PAYLOAD,2024-07-09 12:11:32,15.08835113,0.0001335,53.2165,284.3584,84.7443,275.3701,-3.3823e-05,-8.26e-06,0.0,0 STARLINK-4123,1 53539U 22101N   24191.50801529 -.00000826  00000-0 -33823-4 0  9999,2 53539  53.2165 284.3584 0001335  84.7443 275.3701 15.08835113104358,6917.895,95.438,540.684,538.837,0.0
53539.0,STARLINK-4123,PAYLOAD,2024-07-09 13:46:55,15.08837283,0.0001361,53.2165,284.0609,83.7883,276.3264,1.1641e-05,-1.03e-06,0.0,0 STARLINK-4123,1 53539U 22101N   24191.57425483 -.00000103  00000-0  11641-4 0  9998,2 53539  53.2165 284.0609 0001361  83.7883 276.3264 15.08837283104365,6917.889,95.438,540.695,538.812,0.0
53539.0,STARLINK-4123,PAYLOAD,2024-07-10 12:02:19,15.08841909,0.0001307,53.216,279.8989,89.2574,270.8568,0.00022635,3.316e-05,0.0,0 STARLINK-4123,1 53539U 22101N   24192.50161547  .00003316  00000-0  22635-3 0  9992,2 53539  53.2160 279.8989 0001307  89.2574 270.8568 15.08841909104503,6917.875,95.437,540.644,538.835,0.0
53539.0,STARLINK-4123,PAYLOAD,2024-07-11 11:53:06,15.08849891,0.0001292,53.2156,275.4381,89.7867,270.3273,0.00037504,5.687e-05,0.0,0 STARLINK-4123,1 53539U 22101N   24193.49521376  .00005687  00000-0  37504-3 0  9995,2 53539  53.2156 275.4381 0001292  89.7867 270.3273 15.08849891104651,6917.85,95.437,540.609,538.821,0.0
53539.0,STARLINK-4123,PAYLOAD,2024-07-12 11:43:53,15.08837621,0.0001449,53.2168,270.9747,100.1082,260.0074,1.0455e-05,-1.22e-06,0.0,0 STARLINK-4123,1 53539U 22101N   24194.48881584 -.00000122  00000-0  10455-4 0  9992,2 53539  53.2168 270.9747 0001449 100.1082 260.0074 15.08837621104801,6917.888,95.438,540.755,538.75,0.0
53539.0,STARLINK-4123,PAYLOAD,2024-07-12 14:54:39,15.0883943,0.0001585,53.2168,270.3793,101.8212,258.2958,5.6763e-05,6.15e-06,0.0,0 STARLINK-4123,1 53539U 22101N   24194.62129587  .00000615  00000-0  56763-4 0  9994,2 53539  53.2168 270.3793 0001585 101.8212 258.2958 15.08839430104822,6917.882,95.438,540.844,538.651,0.0
53539.0,STARLINK-4123,PAYLOAD,2024-07-13 11:34:40,15.0884185,0.0001443,53.2162,266.5143,102.8875,257.2278,0.000233,3.422e-05,0.0,0 STARLINK-4123,1 53539U 22101N   24195.48241637  .00003422  00000-0  23300-3 0  9999,2 53539  53.2162 266.5143 0001443 102.8875 257.2278 15.08841850104958,6917.875,95.437,540.738,538.741,0.0
53539.0,STARLINK-4123,PAYLOAD,2024-07-14 05:03:55,15.08845687,0.0001429,53.2162,263.2432,94.2006,265.9149,0.00034434,5.197e-05,0.0,0 STARLINK-4123,1 53539U 22101N   24196.21105693  .00005197  00000-0  34434-3 0  9993,2 53539  53.2162 263.2432 0001429  94.2006 265.9149 15.08845687105065,6917.863,95.437,540.717,538.739,0.0
53539.0,STARLINK-4123,PAYLOAD,2024-07-14 11:25:27,15.08845126,0.0001278,53.2156,262.0557,84.6692,275.4446,0.00025497,3.773e-05,0.0,0 STARLINK-4123,1 53539U 22101N   24196.47601655  .00003773  00000-0  25497-3 0  9997,2 53539  53.2156 262.0557 0001278  84.6692 275.4446 15.08845126105108,6917.865,95.437,540.614,538.846,0.0
53539.0,STARLINK-4123,PAYLOAD,2024-07-14 20:57:46,15.08857557,0.0001307,53.2164,260.2728,92.4735,267.6407,0.00041361,6.304e-05,0.0,0 STARLINK-4123,1 53539U 22101N   24196.87345010  .00006304  00000-0  41361-3 0  9992,2 53539  53.2164 260.2728 0001307  92.4735 267.6407 15.08857557105162,6917.827,95.436,540.596,538.788,0.0
